#dP2021  3 19 12  0  0.00000000      96 __u+U ITR00 EXT  IAC
## 2149 475200.00000000   900.00000000 59292 0.5000000000000
+  115   C06C07C08C09C10C11C12C13C14C16C19C20C21C22C23C24C25
+        C26C27C28C29C30C32C33C34C35C36C37C38C39C40C41C42C43
+        C44C45C46E01E02E03E04E05E07E08E09E11E12E13E14E15E18
+        E19E21E24E25E26E27E30E31E33G01G02G03G04G05G06G07G08
+        G09G10G11G12G13G14G15G16G17G18G19G20G21G22G23G25G26
+        G27G28G29G30G31G32J01J02J03R01R02R03R04R05R07R08R09
+        R11R12R13R14R15R16R17R18R19R20R21R22R24  0  0  0  0
++         9 11  9 12 10  9  7  9  9 15  9  8  9 10  8  8  8
++         7  8  8  7 10 10  8  9  8  9 10 11 11 10 10  9  8
++         9  9 10  9  8  7  7  7  7  8  7  8  8  8  7  7  8
++         8  8  9  8  8  8  7  7  8  8  8  8  6  8  7  8  8
++         6  7  7  7  8  6  7  8  8  8  8  7  7  7  8  7  7
++         6  8  8  7  8  7  9 10  9  9  8  7  7  8  9  8  7
++         8  9  9  8  8  7  7  8  9  9  9  8  7  0  0  0  0
%c M  cc GPS ccc cccc cccc cccc cccc ccccc ccccc ccccc ccccc
%c cc cc ccc ccc cccc cccc cccc cccc ccccc ccccc ccccc ccccc
%f  0.0000000  0.000000000  0.00000000000  0.000000000000000
%f  0.0000000  0.000000000  0.00000000000  0.000000000000000
%i    0    0    0    0      0      0      0      0         0
%i    0    0    0    0      0      0      0      0         0
/* IAC                                ULTRA-RAPID PREDICTION
/* S/V CLOCKS ARE ALIGNED TO GNSS TIME                      
/* G:C1WC2W R:C1PC2P E:C1XC5X C:C2IC6I J:C1CC2S             
/* PCV:IGS14_2134 OL/AL:FES2004  NONE     YN ORB:CoN CLK:CoN
*  2021 03 19 19  0  0.00000000
PC06  -8958.947972  35153.604032  22336.829750    192.863744
PC07 -17931.943625  21843.958843 -31144.713889    -33.677509
PC08 -24779.957427  32228.107229  10551.721927   -899.011541
PC09    509.224197  41481.384479   9011.419805    657.010350
PC10  -1614.357757  26508.807859 -32513.054498    -69.245767
PC11 -14160.266495 -12932.546358 -20222.298201   -859.374555
PC12  -6281.393104 -26438.346860  -6341.462751    877.196783
PC13 -12704.912913  33138.300539  22678.150155    186.845039
PC14 -25253.990053 -11933.677394   -522.135396    251.353294
PC16  -5252.189264  37369.158588  19130.069759   -742.072561
PC19  25980.576426   5229.796270  -8683.692446    767.546988
PC20  21241.382413  16041.674839   8350.338441   -933.119778
PC21  -3574.499242 -17789.313450 -21185.284600   -893.690079
PC22  15751.255424  -8951.784542 -21209.537766   -923.764463
PC23 -21687.716751  17360.798440  -2624.979089   -878.741102
PC24 -11337.308756 -11796.440425  22591.547393   -787.486624
PC25 -23675.849073   5145.262367  13820.637056   -945.940118
PC26   5931.625920 -20376.903105  18128.008774    933.130353
PC27     75.203365  27769.295733  -2898.069587    501.321331
PC28 -11240.762719  17928.169110 -18188.604794    -96.496598
PC29  16042.781825   1773.451271  22759.372205    367.197706
PC30  11909.437707  21235.872520  13657.669542    453.639593
PC32   3646.729124  17778.051461  21215.480688   -916.413342
PC33 -26046.603071  -5112.024324   8653.329171   -945.856200
PC34 -12200.347089 -20679.142980 -14205.190299   -715.318332
PC35  10830.358165 -18002.215674  18344.406677   -367.116537
PC36  23699.859684  -4324.754097 -14068.567797   -739.933555
PC37  -7207.631708  20377.111524 -17628.836098   -879.138407
PC38 -21735.903433  33700.983664  12875.581152    136.848144
PC39  -2356.220684  37757.258520  18777.884458     29.530198
PC40  -4587.787726  22010.443356 -35660.783265    142.580263
PC41 -16002.602774   8870.105266  21121.314074   -933.566176
PC42 -20852.348286 -16268.180585  -8879.884190   -938.990935
PC43 -16164.673145  -2360.502406 -22626.569200   -646.853944
PC44   -868.086186 -27702.894985   3057.348373     94.147950
PC45  21633.110287 -17439.563154   2704.592635    391.062872
PC46  12179.974805  10976.664545 -22584.335536    355.500067
PE01 -12002.941277  16353.280122 -21556.912712  -1068.971025
PE02  11912.254905 -16367.398690  21596.400328    206.157854
PE03   1624.030200 -21327.078673 -20465.509534   -410.690627
PE04  14697.439203  25071.382143   5629.375272   -732.317279
PE05  17258.166711  -4993.157149 -23519.664954   -295.730689
PE07 -22666.652748 -14073.193891  12837.300613   -514.827817
PE08 -15078.082300 -24911.251715  -5345.926307   6030.708127
PE09  22674.333313  13865.904096 -13009.846703   5729.382259
PE11  15349.136143   5239.427304  24758.869036   6188.943173
PE12   3137.809575  23639.471568  17557.409419   5302.198785
PE13 -15127.254637  -5592.397576 -24811.562543    413.782526
PE14   6114.462234  25635.961470  -5343.849990  -1367.428342
PE15  -3193.945067 -23567.931261 -17603.794775    823.829714
PE18 -17703.476207 -23096.354749  -9383.722517  -1495.399260
PE19  -3567.065560  19898.029257  21630.336974    230.902143
PE21 -27149.961723   9058.985194  -7541.498180   -654.525602
PE24  26747.272891   4417.724311 -11933.910466   -801.449541
PE25  27244.846756  -8947.137276   7356.845557   -528.856637
PE26 -18216.685744  16199.833094 -16784.503331   2023.209082
PE27 -27074.848066  -3795.156348  11328.265173      6.987046
PE30 -10093.385091 -14713.660331  23601.012053   3093.875110
PE31  11099.080042  14324.505280 -23404.461945   -479.329584
PE33 -10589.226536  27649.723621     67.763743   -466.691095
PG01  13981.581997 -22331.623832  -1328.486105    737.422337
PG02 -17961.106200   6860.277636 -17683.966200   -587.686722
PG03  11705.391766 -13062.874039 -19990.492872   -112.629435
PG04   5308.545327 -18711.162954 -18058.917636   -187.136629
PG05 -25229.397173   4473.151039   7204.817347    -36.675116
PG06 -12852.006657  -7190.570511 -22042.051912      1.729339
PG07   3011.300176 -22329.319635  13998.766184     95.189719
PG08  10571.335347 -11573.155712  21396.468835    -14.350443
PG09  -4604.707425 -24187.460975  -9985.642256   -332.391847
PG10  18243.902644  11788.401160  15577.885113    -84.386208
PG11   9539.893223 -22971.884224   9371.520166      5.678821
PG12 -15852.690779  10666.553110 -18636.911720    -16.208437
PG13 -15276.667897   1202.866224  21572.408978    109.747235
PG14 -16578.975582 -13128.713506  16069.217747     99.738622
PG15  -9694.386699  13185.991545  20505.666334   -162.027793
PG16  26295.818054    596.504215   4941.443810   -296.510429
PG17 -13652.687289 -21866.785414  -5961.399206    412.377959
PG18   -858.757287  20942.508831  16273.147498    350.831072
PG19 -16112.960571 -15940.939574 -14208.237344    -24.212316
PG20   3588.178821  15406.925492  21299.120968    524.040489
PG21  17035.758323 -18646.122484   8136.348591    104.418883
PG22  19900.716194 -10768.506629 -13564.440070   -656.967577
PG23   6959.285894  14795.227663  20918.363922    117.072039
PG25   -741.137018  15305.360179 -21956.441799    102.022022
PG26  25777.771016   4426.471852  -5440.700233     60.346756
PG27  16499.743052   1797.062805  20656.830813    -97.040416
PG28 -18065.823751 -13042.752702  14865.823070    599.721758
PG29   3223.742237  24548.131190  -9603.432730   -314.785843
PG30  -7776.055172 -15076.153832  20438.554136   -400.775951
PG31  15248.293014   4542.896026 -21407.046298   -106.563318
PG32  16015.785629  19907.534525  -7466.333626     21.432689
PJ01 -26457.111350  21534.525302  29742.590685   -356.510873
PJ02 -35517.809360  17946.878849  -9374.834820      3.671833
PJ03 -20368.312105  27995.879284 -19448.320247     -1.978389
PR01  21217.042782  14138.554733   -476.195807     76.628361
PR02  17097.569387   1319.221069 -18863.893609    471.389976
PR03   2807.075187 -11236.100907 -22676.340374     32.677701
PR04 -12984.894685 -17135.668080 -13692.503679     78.602281
PR05 -21370.899290 -13585.818735   2980.435177     68.438946
PR07  -2148.177673  11674.356235  22622.891944    -42.557792
PR08  12945.099093  17222.111083  13729.465965    -58.026820
PR09 -23453.796432   9861.223736   2291.475744    -16.319632
PR11   1730.052180  11138.312170 -22876.273418      2.115286
PR12  18137.302855    983.795382 -17900.594574    213.890571
PR13  23441.939309  -9641.534582  -2899.703221    -52.223377
PR14  14928.588984 -14689.290031  14559.285480     62.187674
PR15  -2051.801799 -11100.166912  22888.313189    104.833535
PR16 -18708.324631   -142.431923  17242.824597    -12.731770
PR17   6343.972283 -23046.923745   8956.711969    409.357402
PR18  -1119.550683 -24156.408457  -8006.072228     70.344806
PR19  -7411.147309 -13412.055017 -20388.795557   -136.355377
PR20 -10746.065308   8090.135319 -21674.899333    -45.593616
PR21  -5928.727028  23529.611576  -7834.788591   -195.583994
PR22   1476.912153  23852.358281   9053.162095   -103.438730
PR24  11034.233775  -8890.016843  21230.290813     35.619632
EOF
